{
  "type": "FeatureCollection",
  "features": [
    {
      "type": "Feature",
      "properties": {
        "norad_id": 33886,
        "name": "IRIDIUM 33 DEB",
        "group": "iridium-33-debris",
        "lat": 55.788241706989936,
        "lon": -120.63657761196868,
        "alt_km": 767.2775433358329,
        "timestamp": "2025-12-18T17:50:15.339970+00:00",
        "meta_object_name": "IRIDIUM 33 DEB",
        "meta_object_id": "1997-051BF",
        "meta_epoch": "2025-12-18T05:51:24.712128",
        "meta_mean_motion": 14.36058537,
        "meta_eccentricity": 0.00127478,
        "meta_inclination": 86.3827,
        "meta_ra_of_asc_node": 64.9121,
        "meta_arg_of_pericenter": 221.7608,
        "meta_mean_anomaly": 203.2449,
        "meta_ephemeris_type": 0,
        "meta_classification_type": "U",
        "meta_norad_cat_id": 33886,
        "meta_element_set_no": 999,
        "meta_rev_at_epoch": 88131,
        "meta_bstar": 0.00016091906,
        "meta_mean_motion_dot": 4.88e-06,
        "meta_mean_motion_ddot": 0,
        "tle_line1": "1 33886U 97051BF  25352.24403602  .00000488  00000+0  16092-3 0  9998",
        "tle_line2": "2 33886  86.3827  64.9121 0012747 221.7608 203.2449 14.36058537881311"
      },
      "geometry": {
        "type": "Point",
        "coordinates": [
          -120.63657761196868,
          55.788241706989936
        ]
      }
    },
    {
      "type": "Feature",
      "properties": {
        "norad_id": 33887,
        "name": "IRIDIUM 33 DEB",
        "group": "iridium-33-debris",
        "lat": 84.21213261612685,
        "lon": 40.424371862580074,
        "alt_km": 761.8452543579042,
        "timestamp": "2025-12-18T17:50:15.339981+00:00",
        "meta_object_name": "IRIDIUM 33 DEB",
        "meta_object_id": "1997-051BG",
        "meta_epoch": "2025-12-18T00:58:46.314048",
        "meta_mean_motion": 14.37225774,
        "meta_eccentricity": 0.00049614,
        "meta_inclination": 86.3041,
        "meta_ra_of_asc_node": 1.1077,
        "meta_arg_of_pericenter": 204.7523,
        "meta_mean_anomaly": 208.8254,
        "meta_ephemeris_type": 0,
        "meta_classification_type": "U",
        "meta_norad_cat_id": 33887,
        "meta_element_set_no": 999,
        "meta_rev_at_epoch": 88241,
        "meta_bstar": 0.00012406727,
        "meta_mean_motion_dot": 3.89e-06,
        "meta_mean_motion_ddot": 0,
        "tle_line1": "1 33887U 97051BG  25352.04081382  .00000389  00000+0  12407-3 0  9990",
        "tle_line2": "2 33887  86.3041   1.1077 0004961 204.7523 208.8254 14.37225774882416"
      },
      "geometry": {
        "type": "Point",
        "coordinates": [
          40.424371862580074,
          84.21213261612685
        ]
      }
    },
    {
      "type": "Feature",
      "properties": {
        "norad_id": 33953,
        "name": "IRIDIUM 33 DEB",
        "group": "iridium-33-debris",
        "lat": -27.826671203396145,
        "lon": 49.2617620880906,
        "alt_km": 718.84068413982,
        "timestamp": "2025-12-18T17:50:15.339992+00:00",
        "meta_object_name": "IRIDIUM 33 DEB",
        "meta_object_id": "1997-051BN",
        "meta_epoch": "2025-12-18T05:01:59.483136",
        "meta_mean_motion": 14.55376631,
        "meta_eccentricity": 0.00180872,
        "meta_inclination": 86.3847,
        "meta_ra_of_asc_node": 51.4057,
        "meta_arg_of_pericenter": 86.1806,
        "meta_mean_anomaly": 332.7488,
        "meta_ephemeris_type": 0,
        "meta_classification_type": "U",
        "meta_norad_cat_id": 33953,
        "meta_element_set_no": 999,
        "meta_rev_at_epoch": 88383,
        "meta_bstar": 0.00090494246,
        "meta_mean_motion_dot": 3.956e-05,
        "meta_mean_motion_ddot": 0,
        "tle_line1": "1 33953U 97051BN  25352.20971624  .00003956  00000+0  90494-3 0  9994",
        "tle_line2": "2 33953  86.3847  51.4057 0018087  86.1806 332.7488 14.55376631883832"
      },
      "geometry": {
        "type": "Point",
        "coordinates": [
          49.2617620880906,
          -27.826671203396145
        ]
      }
    },
    {
      "type": "Feature",
      "properties": {
        "norad_id": 33960,
        "name": "IRIDIUM 33 DEB",
        "group": "iridium-33-debris",
        "lat": 63.76850183471734,
        "lon": -65.67620113620856,
        "alt_km": 600.8422410437252,
        "timestamp": "2025-12-18T17:50:15.340003+00:00",
        "meta_object_name": "IRIDIUM 33 DEB",
        "meta_object_id": "1997-051BV",
        "meta_epoch": "2025-12-18T06:57:12.542400",
        "meta_mean_motion": 14.854684,
        "meta_eccentricity": 0.00074505,
        "meta_inclination": 86.2539,
        "meta_ra_of_asc_node": 286.8965,
        "meta_arg_of_pericenter": 53.039,
        "meta_mean_anomaly": 107.3954,
        "meta_ephemeris_type": 0,
        "meta_classification_type": "U",
        "meta_norad_cat_id": 33960,
        "meta_element_set_no": 999,
        "meta_rev_at_epoch": 88949,
        "meta_bstar": 0.0027672748,
        "meta_mean_motion_dot": 0.00023957,
        "meta_mean_motion_ddot": 0,
        "tle_line1": "1 33960U 97051BV  25352.28972850  .00023957  00000+0  27673-2 0  9993",
        "tle_line2": "2 33960  86.2539 286.8965 0007450  53.0390 107.3954 14.85468400889493"
      },
      "geometry": {
        "type": "Point",
        "coordinates": [
          -65.67620113620856,
          63.76850183471734
        ]
      }
    },
    {
      "type": "Feature",
      "properties": {
        "norad_id": 33966,
        "name": "IRIDIUM 33 DEB",
        "group": "iridium-33-debris",
        "lat": -25.66490495759211,
        "lon": 41.71358140269139,
        "alt_km": 738.1448166203072,
        "timestamp": "2025-12-18T17:50:15.340013+00:00",
        "meta_object_name": "IRIDIUM 33 DEB",
        "meta_object_id": "1997-051CB",
        "meta_epoch": "2025-12-18T05:02:06.942048",
        "meta_mean_motion": 14.49615454,
        "meta_eccentricity": 0.00080157,
        "meta_inclination": 86.3919,
        "meta_ra_of_asc_node": 43.6799,
        "meta_arg_of_pericenter": 170.7451,
        "meta_mean_anomaly": 261.6394,
        "meta_ephemeris_type": 0,
        "meta_classification_type": "U",
        "meta_norad_cat_id": 33966,
        "meta_element_set_no": 999,
        "meta_rev_at_epoch": 88521,
        "meta_bstar": 0.00042341797,
        "meta_mean_motion_dot": 1.646e-05,
        "meta_mean_motion_ddot": 0,
        "tle_line1": "1 33966U 97051CB  25352.20980257  .00001646  00000+0  42342-3 0  9993",
        "tle_line2": "2 33966  86.3919  43.6799 0008015 170.7451 261.6394 14.49615454885210"
      },
      "geometry": {
        "type": "Point",
        "coordinates": [
          41.71358140269139,
          -25.66490495759211
        ]
      }
    },
    {
      "type": "Feature",
      "properties": {
        "norad_id": 34071,
        "name": "IRIDIUM 33 DEB",
        "group": "iridium-33-debris",
        "lat": 37.728109622571935,
        "lon": 18.053581295879795,
        "alt_km": 720.3989932222921,
        "timestamp": "2025-12-18T17:50:15.340023+00:00",
        "meta_object_name": "IRIDIUM 33 DEB",
        "meta_object_id": "1997-051CE",
        "meta_epoch": "2025-12-18T07:43:22.413216",
        "meta_mean_motion": 14.4948889,
        "meta_eccentricity": 0.00099568,
        "meta_inclination": 86.345,
        "meta_ra_of_asc_node": 15.4021,
        "meta_arg_of_pericenter": 92.446,
        "meta_mean_anomaly": 267.7884,
        "meta_ephemeris_type": 0,
        "meta_classification_type": "U",
        "meta_norad_cat_id": 34071,
        "meta_element_set_no": 999,
        "meta_rev_at_epoch": 88415,
        "meta_bstar": 0.00048215715,
        "meta_mean_motion_dot": 1.867e-05,
        "meta_mean_motion_ddot": 0,
        "tle_line1": "1 34071U 97051CE  25352.32178719  .00001867  00000+0  48216-3 0  9997",
        "tle_line2": "2 34071  86.3450  15.4021 0009956  92.4460 267.7884 14.49488890884153"
      },
      "geometry": {
        "type": "Point",
        "coordinates": [
          18.053581295879795,
          37.728109622571935
        ]
      }
    },
    {
      "type": "Feature",
      "properties": {
        "norad_id": 34077,
        "name": "IRIDIUM 33 DEB",
        "group": "iridium-33-debris",
        "lat": -32.578373637852856,
        "lon": -128.8220374068357,
        "alt_km": 690.2439366657627,
        "timestamp": "2025-12-18T17:50:15.340033+00:00",
        "meta_object_name": "IRIDIUM 33 DEB",
        "meta_object_id": "1997-051CL",
        "meta_epoch": "2025-12-18T03:59:51.140832",
        "meta_mean_motion": 14.64893341,
        "meta_eccentricity": 0.00095976,
        "meta_inclination": 86.3857,
        "meta_ra_of_asc_node": 49.1172,
        "meta_arg_of_pericenter": 22.3717,
        "meta_mean_anomaly": 31.0362,
        "meta_ephemeris_type": 0,
        "meta_classification_type": "U",
        "meta_norad_cat_id": 34077,
        "meta_element_set_no": 999,
        "meta_rev_at_epoch": 88412,
        "meta_bstar": 0.00076822632,
        "meta_mean_motion_dot": 4.129e-05,
        "meta_mean_motion_ddot": 0,
        "tle_line1": "1 34077U 97051CL  25352.16656413  .00004129  00000+0  76823-3 0  9996",
        "tle_line2": "2 34077  86.3857  49.1172 0009597  22.3717  31.0362 14.64893341884127"
      },
      "geometry": {
        "type": "Point",
        "coordinates": [
          -128.8220374068357,
          -32.578373637852856
        ]
      }
    }
  ]
}